NORAD_CAT_ID,OBJECT_NAME,OBJECT_TYPE,EPOCH,MEAN_MOTION,ECCENTRICITY,INCLINATION,RA_OF_ASC_NODE,ARG_OF_PERICENTER,MEAN_ANOMALY,BSTAR,MEAN_MOTION_DOT,MEAN_MOTION_DDOT,TLE_LINE0,TLE_LINE1,TLE_LINE2,SEMIMAJOR_AXIS,PERIOD,APOGEE,PERIGEE,DECAYED
51956.0,STARLINK-3700,PAYLOAD,2023-11-23 21:05:17,15.08027113,0.0001478,53.0541,183.6371,90.6322,269.4837,-1.2512e-05,-4.81e-06,0.0,0 STARLINK-3700,1 51956U 22025A   23327.87867435 -.00000481  00000-0 -12512-4 0  9992,2 51956  53.0541 183.6371 0001478  90.6322 269.4837 15.08027113 94849,6920.366,95.489,543.254,541.208,0.0
51956.0,STARLINK-3700,PAYLOAD,2023-11-24 14:35:05,15.0802844,0.0001494,53.0542,180.356,125.5954,234.5175,8.7023e-06,-1.51e-06,0.0,0 STARLINK-3700,1 51956U 22025A   23328.60769764 -.00000151  00000-0  87023-5 0  9993,2 51956  53.0542 180.3560 0001494 125.5954 234.5175 15.08028440 94955,6920.362,95.489,543.261,541.193,0.0
51956.0,STARLINK-3700,PAYLOAD,2023-11-24 19:21:23,15.08036104,0.0001382,53.0541,179.4628,107.5931,252.521,-1.8296e-05,-5.71e-06,0.0,0 STARLINK-3700,1 51956U 22025A   23328.80652025 -.00000571  00000-0 -18296-4 0  9998,2 51956  53.0541 179.4628 0001382 107.5931 252.5210 15.08036104 96070,6920.339,95.488,543.16,541.247,0.0
51956.0,STARLINK-3700,PAYLOAD,2023-11-25 09:40:19,15.08027886,0.0001175,53.0522,176.7782,88.584,271.5285,0.00020542,2.913e-05,0.0,0 STARLINK-3700,1 51956U 22025A   23329.40299915  .00002913  00000-0  20542-3 0  9996,2 51956  53.0522 176.7782 0001175  88.5840 271.5285 15.08027886 95076,6920.364,95.489,543.042,541.416,0.0
51956.0,STARLINK-3700,PAYLOAD,2023-11-25 19:12:55,15.08033402,0.0001374,53.0523,174.9888,91.0344,269.0803,0.00025094,3.623e-05,0.0,0 STARLINK-3700,1 51956U 22025A   23329.80064762  .00003623  00000-0  25094-3 0  9996,2 51956  53.0523 174.9888 0001374  91.0344 269.0803 15.08033402 95139,6920.347,95.489,543.163,541.261,0.0
51956.0,STARLINK-3700,PAYLOAD,2023-11-25 23:59:13,15.08040883,0.0001587,53.0519,174.0912,123.0299,237.0843,0.00030732,4.503e-05,0.0,0 STARLINK-3700,1 51956U 22025A   23329.99946656  .00004503  00000-0  30732-3 0  9990,2 51956  53.0519 174.0912 0001587 123.0299 237.0843 15.08040883 96258,6920.324,95.488,543.287,541.091,0.0
51956.0,STARLINK-3700,PAYLOAD,2023-11-26 09:31:51,15.08025706,0.000102,53.053,172.3071,87.0539,273.0567,1.6929e-05,-2.2e-07,0.0,0 STARLINK-3700,1 51956U 22025A   23330.39712418 -.00000022  00000-0  16929-4 0  9999,2 51956  53.0530 172.3071 0001020  87.0539 273.0567 15.08025706 96313,6920.37,95.489,542.941,541.53,0.0
51956.0,STARLINK-3700,PAYLOAD,2023-11-26 19:04:28,15.08033966,0.0001334,53.0522,170.5141,107.4046,252.7089,6.303e-05,6.96e-06,0.0,0 STARLINK-3700,1 51956U 22025A   23330.79476871  .00000696  00000-0  63030-4 0  9994,2 51956  53.0522 170.5141 0001334 107.4046 252.7089 15.08033966 96376,6920.345,95.489,543.133,541.287,0.0
51956.0,STARLINK-3700,PAYLOAD,2023-11-26 20:39:54,15.08033849,0.0001343,53.052,170.2162,108.6765,251.4371,5.8e-05,6.17e-06,0.0,0 STARLINK-3700,1 51956U 22025A   23330.86104312  .00000617  00000-0  58000-4 0  9994,2 51956  53.0520 170.2162 0001343 108.6765 251.4371 15.08033849 95295,6920.346,95.489,543.14,541.281,0.0
51956.0,STARLINK-3700,PAYLOAD,2023-11-27 12:34:12,15.08120795,0.0001611,53.0533,167.2358,109.4257,250.6907,0.0014347,0.00022176,0.0,0 STARLINK-3700,1 51956U 22025A   23331.52375234  .00022176  00000-0  14347-2 0  9999,2 51956  53.0533 167.2358 0001611 109.4257 250.6907 15.08120795 96480,6920.08,95.483,543.059,540.83,0.0
51956.0,STARLINK-3700,PAYLOAD,2023-11-27 18:56:00,15.08037326,0.0001194,53.0532,166.0428,101.5969,258.5154,0.00048628,7.294e-05,0.0,0 STARLINK-3700,1 51956U 22025A   23331.78889438  .00007294  00000-0  48628-3 0  9997,2 51956  53.0532 166.0428 0001194 101.5969 258.5154 15.08037326 96526,6920.335,95.488,543.026,541.374,0.0
51956.0,STARLINK-3700,PAYLOAD,2023-11-28 12:25:47,15.08043251,0.000122,53.0531,162.7614,92.7807,267.3323,0.00026556,3.852e-05,0.0,0 STARLINK-3700,1 51956U 22025A   23332.51791580  .00003852  00000-0  26556-3 0  9991,2 51956  53.0531 162.7614 0001220  92.7807 267.3323 15.08043251 95548,6920.317,95.488,543.026,541.338,0.0
51956.0,STARLINK-3700,PAYLOAD,2023-11-28 20:22:58,15.08039735,0.0001045,53.0531,161.2701,107.8128,252.2976,0.00030817,4.516e-05,0.0,0 STARLINK-3700,1 51956U 22025A   23332.84929283  .00004516  00000-0  30817-3 0  9993,2 51956  53.0531 161.2701 0001045 107.8128 252.2976 15.08039735 96683,6920.328,95.488,542.916,541.469,0.0
51956.0,STARLINK-3700,PAYLOAD,2023-11-29 12:17:20,15.08033672,0.0001253,53.0539,158.2876,77.3171,282.7959,0.00010421,1.337e-05,0.0,0 STARLINK-3700,1 51956U 22025A   23333.51204759  .00001337  00000-0  10421-3 0  9999,2 51956  53.0539 158.2876 0001253  77.3171 282.7959 15.08033672 95693,6920.346,95.489,543.078,541.344,0.0
51956.0,STARLINK-3700,PAYLOAD,2023-11-30 12:08:52,15.08050731,0.0001375,53.0543,153.809,118.4637,241.6492,0.00030635,4.489e-05,0.0,0 STARLINK-3700,1 51956U 22025A   23334.50615988  .00004489  00000-0  30635-3 0  9999,2 51956  53.0543 153.8090 0001375 118.4637 241.6492 15.08050731 96935,6920.294,95.488,543.11,541.207,0.0
51956.0,STARLINK-3700,PAYLOAD,2023-12-01 18:22:08,15.08041148,0.0001262,53.0546,148.1438,123.0473,237.0638,8.5872e-05,1.052e-05,0.0,0 STARLINK-3700,1 51956U 22025A   23335.76538101  .00001052  00000-0  85872-4 0  9996,2 51956  53.0546 148.1438 0001262 123.0473 237.0638 15.08041148 97121,6920.323,95.488,543.062,541.315,0.0
51956.0,STARLINK-3700,PAYLOAD,2023-12-02 11:51:57,15.08031789,0.0001325,53.0545,144.86,103.7714,256.3424,0.00033512,4.935e-05,0.0,0 STARLINK-3700,1 51956U 22025A   23336.49441081  .00004935  00000-0  33512-3 0  9993,2 51956  53.0545 144.8600 0001325 103.7714 256.3424 15.08031789 97236,6920.352,95.489,543.134,541.3,0.0
51956.0,STARLINK-3700,PAYLOAD,2023-12-02 18:13:41,15.08035651,0.0001247,53.0534,143.6678,92.8145,267.2987,-6.2447e-05,-1.258e-05,0.0,0 STARLINK-3700,1 51956U 22025A   23336.75950821 -.00001258  00000-0 -62447-4 0  9996,2 51956  53.0534 143.6678 0001247  92.8145 267.2987 15.08035651 96185,6920.34,95.488,543.068,541.342,0.0
51956.0,STARLINK-3700,PAYLOAD,2023-12-03 11:43:30,15.08015387,0.0001257,53.0535,140.3872,94.8947,265.2187,2.0639e-05,3.5e-07,0.0,0 STARLINK-3700,1 51956U 22025A   23337.48854815  .00000035  00000-0  20639-4 0  9990,2 51956  53.0535 140.3872 0001257  94.8947 265.2187 15.08015387 97386,6920.402,95.49,543.137,541.397,0.0
51956.0,STARLINK-3700,PAYLOAD,2023-12-04 09:59:37,15.08017403,0.0001233,53.0535,136.2108,97.8116,262.3014,-8.4434e-06,-4.17e-06,0.0,0 STARLINK-3700,1 51956U 22025A   23338.41640494 -.00000417  00000-0 -84434-5 0  9990,2 51956  53.0535 136.2108 0001233  97.8116 262.3014 15.08017403 96430,6920.396,95.49,543.114,541.408,0.0
51956.0,STARLINK-3700,PAYLOAD,2023-12-05 19:23:46,15.08038901,0.0001267,53.0543,129.9491,86.8232,273.2902,0.00032077,4.713e-05,0.0,0 STARLINK-3700,1 51956U 22025A   23339.80817133  .00004713  00000-0  32077-3 0  9995,2 51956  53.0543 129.9491 0001267  86.8232 273.2902 15.08038901 97734,6920.33,95.488,543.072,541.318,0.0
51956.0,STARLINK-3700,PAYLOAD,2023-12-06 19:15:18,15.0803126,0.0001257,53.0551,125.4744,93.066,267.0474,9.214e-05,1.149e-05,0.0,0 STARLINK-3700,1 51956U 22025A   23340.80229780  .00001149  00000-0  92140-4 0  9990,2 51956  53.0551 125.4744 0001257  93.0660 267.0474 15.08031260 97881,6920.353,95.489,543.088,541.349,0.0
51956.0,STARLINK-3700,PAYLOAD,2023-12-07 09:34:13,15.08028616,0.0001245,53.0538,122.7897,90.9885,269.1247,-1.4031e-05,-5.04e-06,0.0,0 STARLINK-3700,1 51956U 22025A   23341.39877279 -.00000504  00000-0 -14031-4 0  9996,2 51956  53.0538 122.7897 0001245  90.9885 269.1247 15.08028616 96888,6920.362,95.489,543.088,541.365,0.0
51956.0,STARLINK-3700,PAYLOAD,2023-12-08 09:25:46,15.08032003,0.0001269,53.054,118.3159,91.738,268.3755,4.2107e-05,3.7e-06,0.0,0 STARLINK-3700,1 51956U 22025A   23342.39289541  .00000370  00000-0  42107-4 0  9990,2 51956  53.0540 118.3159 0001269  91.7380 268.3755 15.08032003 98127,6920.351,95.489,543.094,541.338,0.0
51956.0,STARLINK-3700,PAYLOAD,2023-12-08 12:36:38,15.08033081,0.0001271,53.0552,117.7201,86.9299,273.1837,6.3586e-05,7.04e-06,0.0,0 STARLINK-3700,1 51956U 22025A   23342.52544564  .00000704  00000-0  63586-4 0  9999,2 51956  53.0552 117.7201 0001271  86.9299 273.1837 15.08033081 97052,6920.348,95.489,543.092,541.333,0.0
51956.0,STARLINK-3700,PAYLOAD,2023-12-09 12:28:11,15.08030083,0.000129,53.0555,113.2486,81.575,278.5386,8.4809e-05,1.035e-05,0.0,0 STARLINK-3700,1 51956U 22025A   23343.51957281  .00001035  00000-0  84809-4 0  9992,2 51956  53.0555 113.2486 0001290  81.5750 278.5386 15.08030083 97209,6920.357,95.489,543.115,541.329,0.0
51956.0,STARLINK-3700,PAYLOAD,2023-12-10 13:55:09,15.08029703,0.0001312,53.0559,108.4762,90.9566,269.1574,8.7954e-05,1.084e-05,0.0,0 STARLINK-3700,1 51956U 22025A   23344.57997335  .00001084  00000-0  87954-4 0  9991,2 51956  53.0559 108.4762 0001312  90.9566 269.1574 15.08029703 97369,6920.358,95.489,543.131,541.315,0.0
51956.0,STARLINK-3700,PAYLOAD,2023-12-10 15:30:35,15.0803029,0.0001339,53.056,108.1779,94.4927,265.6216,9.0243e-05,1.119e-05,0.0,0 STARLINK-3700,1 51956U 22025A   23344.64624775  .00001119  00000-0  90243-4 0  9998,2 51956  53.0560 108.1779 0001339  94.4927 265.6216 15.08030290 98464,6920.356,95.489,543.148,541.295,0.0
51956.0,STARLINK-3700,PAYLOAD,2023-12-11 13:46:42,15.0803014,0.0001377,53.0559,104.0033,102.4344,257.68,8.5002e-05,1.038e-05,0.0,0 STARLINK-3700,1 51956U 22025A   23345.57409831  .00001038  00000-0  85002-4 0  9992,2 51956  53.0559 104.0033 0001377 102.4344 257.6800 15.08030140 97514,6920.357,95.489,543.175,541.269,0.0
51956.0,STARLINK-3700,PAYLOAD,2023-12-11 15:22:08,15.08030598,0.0001314,53.0559,103.7048,95.2013,264.9127,8.5963e-05,1.053e-05,0.0,0 STARLINK-3700,1 51956U 22025A   23345.64037323  .00001053  00000-0  85963-4 0  9996,2 51956  53.0559 103.7048 0001314  95.2013 264.9127 15.08030598 97520,6920.356,95.489,543.13,541.311,0.0
